{"type": "FeatureCollection", "features": [ {"type": "Feature", "properties": {"norad_id": 40115, "name": "WORLDVIEW-3 (WV-3)", "group": "resource", "lat": -75.67738451617764, "lon": -154.5253390114141, "alt_km": 618.2349453664638, "timestamp": "2025-12-11T22:43:46.928637+00:00", "meta": {"OBJECT_NAME": "WORLDVIEW-3 (WV-3)", "OBJECT_ID": "2014-048A", "EPOCH": "2025-12-11T15:06:20.303424", "MEAN_MOTION": 14.85507738, "ECCENTRICITY": 0.0004689, "INCLINATION": 97.8613, "RA_OF_ASC_NODE": 57.9234, "ARG_OF_PERICENTER": 188.2663, "MEAN_ANOMALY": 171.8476, "EPHEMERIS_TYPE": 0, "CLASSIFICATION_TYPE": "U", "NORAD_CAT_ID": 40115, "ELEMENT_SET_NO": 999, "REV_AT_EPOCH": 61407, "BSTAR": 0.00024987653, "MEAN_MOTION_DOT": 2.104e-05, "MEAN_MOTION_DDOT": 0}, "tle": {"line1": "1 40115U 14048A   25345.62940166  .00002104  00000+0  24988-3 0  9991", "line2": "2 40115  97.8613  57.9234 0004689 188.2663 171.8476 14.85507738614078"}}, "geometry": {"type": "Point", "coordinates": [-154.5253390114141, -75.67738451617764]}}, {"type": "Feature", "properties": {"norad_id": 40118, "name": "GAOFEN-2", "group": "resource", "lat": 81.92066254594154, "lon": -39.42507263060564, "alt_km": 614.5212537670177, "timestamp": "2025-12-11T22:43:46.928648+00:00", "meta": {"OBJECT_NAME": "GAOFEN-2", "OBJECT_ID": "2014-049A", "EPOCH": "2025-12-11T14:13:07.347360", "MEAN_MOTION": 14.80606991, "ECCENTRICITY": 0.0008616, "INCLINATION": 98.0378, "RA_OF_ASC_NODE": 44.7584, "ARG_OF_PERICENTER": 116.5907, "MEAN_ANOMALY": 243.6188, "EPHEMERIS_TYPE": 0, "CLASSIFICATION_TYPE": "U", "NORAD_CAT_ID": 40118, "ELEMENT_SET_NO": 999, "REV_AT_EPOCH": 61147, "BSTAR": 0.00025107465, "MEAN_MOTION_DOT": 1.874e-05, "MEAN_MOTION_DDOT": 0}, "tle": {"line1": "1 40118U 14049A   25345.59244615  .00001874  00000+0  25107-3 0  9994", "line2": "2 40118  98.0378  44.7584 0008616 116.5907 243.6188 14.80606991611478"}}, "geometry": {"type": "Point", "coordinates": [-39.42507263060564, 81.92066254594154]}}, {"type": "Feature", "properties": {"norad_id": 40143, "name": "YAOGAN-21", "group": "resource", "lat": -68.84240148619533, "lon": 48.290880436509426, "alt_km": 504.8927356539816, "timestamp": "2025-12-11T22:43:46.928658+00:00", "meta": {"OBJECT_NAME": "YAOGAN-21", "OBJECT_ID": "2014-053A", "EPOCH": "2025-12-11T13:34:46.726176", "MEAN_MOTION": 15.23663145, "ECCENTRICITY": 0.00099382, "INCLINATION": 97.1754, "RA_OF_ASC_NODE": 28.9295, "ARG_OF_PERICENTER": 45.791, "MEAN_ANOMALY": 314.4143, "EPHEMERIS_TYPE": 0, "CLASSIFICATION_TYPE": "U", "NORAD_CAT_ID": 40143, "ELEMENT_SET_NO": 999, "REV_AT_EPOCH": 62636, "BSTAR": 0.00054869533, "MEAN_MOTION_DOT": 0.00013119, "MEAN_MOTION_DDOT": 0}, "tle": {"line1": "1 40143U 14053A   25345.56581859  .00013119  00000+0  54870-3 0  9992", "line2": "2 40143  97.1754  28.9295 0009938  45.7910 314.4143 15.23663145626366"}}, "geometry": {"type": "Point", "coordinates": [48.290880436509426, -68.84240148619533]}}, {"type": "Feature", "properties": {"norad_id": 40275, "name": "YAOGAN-22", "group": "resource", "lat": -1.969997518858251, "lon": 129.72930600965887, "alt_km": 1206.201888896825, "timestamp": "2025-12-11T22:43:46.928668+00:00", "meta": {"OBJECT_NAME": "YAOGAN-22", "OBJECT_ID": "2014-063A", "EPOCH": "2025-12-11T15:26:20.118624", "MEAN_MOTION": 13.15522626, "ECCENTRICITY": 0.00059501, "INCLINATION": 100.742, "RA_OF_ASC_NODE": 129.0473, "ARG_OF_PERICENTER": 250.9837, "MEAN_ANOMALY": 109.063, "EPHEMERIS_TYPE": 0, "CLASSIFICATION_TYPE": "U", "NORAD_CAT_ID": 40275, "ELEMENT_SET_NO": 999, "REV_AT_EPOCH": 53515, "BSTAR": 5.0670224e-05, "MEAN_MOTION_DOT": -2.8e-07, "MEAN_MOTION_DDOT": 0}, "tle": {"line1": "1 40275U 14063A   25345.64328841 -.00000028  00000+0  50670-4 0  9999", "line2": "2 40275 100.7420 129.0473 0005950 250.9837 109.0630 13.15522626535154"}}, "geometry": {"type": "Point", "coordinates": [129.72930600965887, -1.969997518858251]}}, {"type": "Feature", "properties": {"norad_id": 40298, "name": "ASNARO", "group": "resource", "lat": -10.229122926158437, "lon": 63.24942754022568, "alt_km": 514.3334929326074, "timestamp": "2025-12-11T22:43:46.928678+00:00", "meta": {"OBJECT_NAME": "ASNARO", "OBJECT_ID": "2014-070A", "EPOCH": "2025-12-11T14:52:20.976672", "MEAN_MOTION": 15.19466624, "ECCENTRICITY": 0.00054479, "INCLINATION": 97.3647, "RA_OF_ASC_NODE": 61.5927, "ARG_OF_PERICENTER": 124.9656, "MEAN_ANOMALY": 235.2091, "EPHEMERIS_TYPE": 0, "CLASSIFICATION_TYPE": "U", "NORAD_CAT_ID": 40298, "ELEMENT_SET_NO": 999, "REV_AT_EPOCH": 61552, "BSTAR": 0.00104066, "MEAN_MOTION_DOT": 0.0002206, "MEAN_MOTION_DDOT": 0}, "tle": {"line1": "1 40298U 14070A   25345.61968723  .00022060  00000+0  10407-2 0  9999", "line2": "2 40298  97.3647  61.5927 0005447 124.9656 235.2091 15.19466624615529"}}, "geometry": {"type": "Point", "coordinates": [63.24942754022568, -10.229122926158437]}}, {"type": "Feature", "properties": {"norad_id": 40310, "name": "YAOGAN-24", "group": "resource", "lat": 80.70188559250951, "lon": 56.31212250067722, "alt_km": 628.0464188173864, "timestamp": "2025-12-11T22:43:46.928688+00:00", "meta": {"OBJECT_NAME": "YAOGAN-24", "OBJECT_ID": "2014-072A", "EPOCH": "2025-12-11T15:50:11.854752", "MEAN_MOTION": 14.7617512, "ECCENTRICITY": 0.00147135, "INCLINATION": 98.1221, "RA_OF_ASC_NODE": 116.7471, "ARG_OF_PERICENTER": 141.3074, "MEAN_ANOMALY": 218.9192, "EPHEMERIS_TYPE": 0, "CLASSIFICATION_TYPE": "U", "NORAD_CAT_ID": 40310, "ELEMENT_SET_NO": 999, "REV_AT_EPOCH": 59605, "BSTAR": 0.00036288911, "MEAN_MOTION_DOT": 2.46e-05, "MEAN_MOTION_DDOT": 0}, "tle": {"line1": "1 40310U 14072A   25345.65985943  .00002460  00000+0  36289-3 0  9992", "line2": "2 40310  98.1221 116.7471 0014713 141.3074 218.9192 14.76175120596057"}}, "geometry": {"type": "Point", "coordinates": [56.31212250067722, 80.70188559250951]}}, {"type": "Feature", "properties": {"norad_id": 40336, "name": "CBERS 4", "group": "resource", "lat": -57.12781684128928, "lon": 57.09533396011191, "alt_km": 781.5577460414124, "timestamp": "2025-12-11T22:43:46.928698+00:00", "meta": {"OBJECT_NAME": "CBERS 4", "OBJECT_ID": "2014-079A", "EPOCH": "2025-12-11T14:38:08.637216", "MEAN_MOTION": 14.35517861, "ECCENTRICITY": 0.00016308, "INCLINATION": 98.3305, "RA_OF_ASC_NODE": 43.665, "ARG_OF_PERICENTER": 112.8981, "MEAN_ANOMALY": 247.2377, "EPHEMERIS_TYPE": 0, "CLASSIFICATION_TYPE": "U", "NORAD_CAT_ID": 40336, "ELEMENT_SET_NO": 999, "REV_AT_EPOCH": 57704, "BSTAR": 0.00017819123, "MEAN_MOTION_DOT": 4.71e-06, "MEAN_MOTION_DDOT": 0}, "tle": {"line1": "1 40336U 14079A   25345.60982219  .00000471  00000+0  17819-3 0  9993", "line2": "2 40336  98.3305  43.6650 0001630 112.8981 247.2377 14.35517861577046"}}, "geometry": {"type": "Point", "coordinates": [57.09533396011191, -57.12781684128928]}}, {"type": "Feature", "properties": {"norad_id": 40362, "name": "YAOGAN-26", "group": "resource", "lat": -39.434074465515394, "lon": -7.496711920559762, "alt_km": 453.57621815467337, "timestamp": "2025-12-11T22:43:46.928709+00:00", "meta": {"OBJECT_NAME": "YAOGAN-26", "OBJECT_ID": "2014-088A", "EPOCH": "2025-12-11T15:06:03.476160", "MEAN_MOTION": 15.39229633, "ECCENTRICITY": 0.00064207, "INCLINATION": 97.0645, "RA_OF_ASC_NODE": 346.3429, "ARG_OF_PERICENTER": 33.6196, "MEAN_ANOMALY": 326.5456, "EPHEMERIS_TYPE": 0, "CLASSIFICATION_TYPE": "U", "NORAD_CAT_ID": 40362, "ELEMENT_SET_NO": 999, "REV_AT_EPOCH": 60877, "BSTAR": 0.0005804397, "MEAN_MOTION_DOT": 0.00022555, "MEAN_MOTION_DDOT": 0}, "tle": {"line1": "1 40362U 14088A   25345.62920690  .00022555  00000+0  58044-3 0  9991", "line2": "2 40362  97.0645 346.3429 0006420  33.6196 326.5456 15.39229633608771"}}, "geometry": {"type": "Point", "coordinates": [-7.496711920559762, -39.434074465515394]}}, {"type": "Feature", "properties": {"norad_id": 40376, "name": "SMAP", "group": "resource", "lat": 64.22038391280049, "lon": -26.53193953635768, "alt_km": 675.3491395363217, "timestamp": "2025-12-11T22:43:46.928719+00:00", "meta": {"OBJECT_NAME": "SMAP", "OBJECT_ID": "2015-003A", "EPOCH": "2025-12-11T14:13:35.109408", "MEAN_MOTION": 14.63342734, "ECCENTRICITY": 0.00012009, "INCLINATION": 98.1292, "RA_OF_ASC_NODE": 350.3331, "ARG_OF_PERICENTER": 89.6313, "MEAN_ANOMALY": 270.5027, "EPHEMERIS_TYPE": 0, "CLASSIFICATION_TYPE": "U", "NORAD_CAT_ID": 40376, "ELEMENT_SET_NO": 999, "REV_AT_EPOCH": 58018, "BSTAR": 0.00018452894, "MEAN_MOTION_DOT": 9.06e-06, "MEAN_MOTION_DDOT": 0}, "tle": {"line1": "1 40376U 15003A   25345.59276747  .00000906  00000+0  18453-3 0  9993", "line2": "2 40376  98.1292 350.3331 0001200  89.6313 270.5027 14.63342734580186"}}, "geometry": {"type": "Point", "coordinates": [-26.53193953635768, 64.22038391280049]}}, {"type": "Feature", "properties": {"norad_id": 40536, "name": "KOMPSAT-3A", "group": "resource", "lat": -66.49538818822636, "lon": 122.17553799985873, "alt_km": 443.4975315195388, "timestamp": "2025-12-11T22:43:46.928729+00:00", "meta": {"OBJECT_NAME": "KOMPSAT-3A", "OBJECT_ID": "2015-014A", "EPOCH": "2025-12-11T13:52:58.236384", "MEAN_MOTION": 15.43875681, "ECCENTRICITY": 0.00047779, "INCLINATION": 97.6791, "RA_OF_ASC_NODE": 319.8608, "ARG_OF_PERICENTER": 129.4016, "MEAN_ANOMALY": 230.7655, "EPHEMERIS_TYPE": 0, "CLASSIFICATION_TYPE": "U", "NORAD_CAT_ID": 40536, "ELEMENT_SET_NO": 999, "REV_AT_EPOCH": 59277, "BSTAR": 0.00056497126, "MEAN_MOTION_DOT": 0.0002561, "MEAN_MOTION_DDOT": 0}, "tle": {"line1": "1 40536U 15014A   25345.57845181  .00025610  00000+0  56497-3 0  9994", "line2": "2 40536  97.6791 319.8608 0004777 129.4016 230.7655 15.43875681592778"}}, "geometry": {"type": "Point", "coordinates": [122.17553799985873, -66.49538818822636]}}]}